APSTAR 6D               
1 45863U 20045A   20264.65063660 -.00000332  00000-0  10000-3 0  9996
2 45863   0.0317 176.4526 0001504   1.3511 190.8761  1.00266555   856
KOREASAT 116            
1 45920U 20048A   20264.43591119 -.00000378  00000-0  00000-0 0  9990
2 45920   0.0331 275.2302 0001281 267.5107  90.1887  1.00269228   621
